[
    {
        "name": "대한민국",
        "dial_code": "82"
    },
    {
        "name": "아프가니스탄",
        "dial_code": "93"
    },
    {
        "name": "알란드 제도",
        "dial_code": "358"
    },
    {
        "name": "알바니아",
        "dial_code": "355"
    },
    {
        "name": "알제리",
        "dial_code": "213"
    },
    {
        "name": "미국령 사모아",
        "dial_code": "1684"
    },
    {
        "name": "안도라",
        "dial_code": "376"
    },
    {
        "name": "앙골라",
        "dial_code": "244"
    },
    {
        "name": "앵귈라",
        "dial_code": "1264"
    },
    {
        "name": "남극",
        "dial_code": "672"
    },
    {
        "name": "앤티가바부다",
        "dial_code": "1268"
    },
    {
        "name": "아르헨티나",
        "dial_code": "54"
    },
    {
        "name": "아르메니아",
        "dial_code": "374"
    },
    {
        "name": "아루바",
        "dial_code": "297"
    },
    {
        "name": "Australia",
        "dial_code": "61"
    },
    {
        "name": "오스트리아",
        "dial_code": "43"
    },
    {
        "name": "아제르바이잔",
        "dial_code": "994"
    },
    {
        "name": "바하마",
        "dial_code": "1242"
    },
    {
        "name": "바레인",
        "dial_code": "973"
    },
    {
        "name": "방글라데시",
        "dial_code": "880"
    },
    {
        "name": "바베이도스",
        "dial_code": "1246"
    },
    {
        "name": "벨로루시",
        "dial_code": "375"
    },
    {
        "name": "벨기에",
        "dial_code": "32"
    },
    {
        "name": "벨리즈",
        "dial_code": "501"
    },
    {
        "name": "베냉",
        "dial_code": "229"
    },
    {
        "name": "버뮤다",
        "dial_code": "1441"
    },
    {
        "name": "부탄",
        "dial_code": "975"
    },
    {
        "name": "볼리비아, 다민족 국가",
        "dial_code": "591"
    },
    {
        "name": "보스니아 헤르체고비나",
        "dial_code": "387"
    },
    {
        "name": "보츠와나",
        "dial_code": "267"
    },
    {
        "name": "Brazil",
        "dial_code": "55"
    },
    {
        "name": "영국령 인도양 영토",
        "dial_code": "246"
    },
    {
        "name": "브루나이",
        "dial_code": "673"
    },
    {
        "name": "불가리아",
        "dial_code": "359"
    },
    {
        "name": "부르키나파소",
        "dial_code": "226"
    },
    {
        "name": "부룬디",
        "dial_code": "257"
    },
    {
        "name": "캄보디아",
        "dial_code": "855"
    },
    {
        "name": "카메룬",
        "dial_code": "237"
    },
    {
        "name": "Canada",
        "dial_code": "1"
    },
    {
        "name": "카보베르데",
        "dial_code": "238"
    },
    {
        "name": "케이맨 제도",
        "dial_code": "345"
    },
    {
        "name": "중앙아프리카공화국",
        "dial_code": "236"
    },
    {
        "name": "차드",
        "dial_code": "235"
    },
    {
        "name": "칠레",
        "dial_code": "56"
    },
    {
        "name": "중국",
        "다이얼 코드": "86"
    },
    {
        "name": "크리스마스 섬",
        "dial_code": "61"
    },
    {
        "name": "코코스 (킬링) 제도",
        "dial_code": "61"
    },
    {
        "name": "콜롬비아",
        "dial_code": "57"
    },
    {
        "name": "코모로",
        "dial_code": "269"
    },
    {
        "name": "콩고",
        "dial_code": "242"
    },
    {
        "name": "콩고, 콩고 민주 공화국",
        "dial_code": "243"
    },
    {
        "name": "쿡 제도",
        "dial_code": "682"
    },
    {
        "name": "코스타리카",
        "dial_code": "506"
    },
    {
        "name": "코트디부아르",
        "dial_code": "225"
    },
    {
        "name": "Croatia",
        "dial_code": "385"
    },
    {
        "name": "쿠바",
        "dial_code": "53"
    },
    {
        "name": "키프로스",
        "dial_code": "357"
    },
    {
        "name": "체코",
        "dial_code": "420"
    },
    {
        "name": "Denmark",
        "dial_code": "45"
    },
    {
        "name": "지부티",
        "dial_code": "253"
    },
    {
        "name": "도미니카",
        "dial_code": "1767"
    },
    {
        "name": "도미니카 공화국",
        "dial_code": "1849"
    },
    {
        "name": "에콰도르",
        "dial_code": "593"
    },
    {
        "name": "Egypt",
        "dial_code": "20"
    },
    {
        "name": "엘살바도르",
        "dial_code": "503"
    },
    {
        "name": "적도 기니",
        "dial_code": "240"
    },
    {
        "name": "에리트레아",
        "dial_code": "291"
    },
    {
        "name": "에스토니아",
        "dial_code": "372"
    },
    {
        "name": "에티오피아",
        "dial_code": "251"
    },
    {
        "name": "포클랜드 제도 (말비나스)",
        "dial_code": "500"
    },
    {
        "name": "페로 제도",
        "dial_code": "298"
    },
    {
        "name": "피지",
        "dial_code": "679"
    },
    {
        "name": "Finland",
        "dial_code": "358"
    },
    {
        "name": "France",
        "dial_code": "33"
    },
    {
        "name": "프랑스 령 기아나",
        "dial_code": "594"
    },
    {
        "name": "프랑스령 폴리네시아",
        "dial_code": "689"
    },
    {
        "name": "가봉",
        "dial_code": "241"
    },
    {
        "name": "감비아",
        "dial_code": "220"
    },
    {
        "name": "Georgia",
        "dial_code": "995"
    },
    {
        "name": "Germany",
        "dial_code": "49"
    },
    {
        "name": "가나",
        "dial_code": "233"
    },
    {
        "name": "지브롤터",
        "dial_code": "350"
    },
    {
        "name": "Greece",
        "dial_code": "30"
    },
    {
        "name": "그린란드",
        "dial_code": "299"
    },
    {
        "name": "그레나다",
        "dial_code": "1473"
    },
    {
        "name": "과들루프",
        "dial_code": "590"
    },
    {
        "name": "괌",
        "dial_code": "1671"
    },
    {
        "name": "과테말라",
        "dial_code": "502"
    },
    {
        "name": "건지섬",
        "dial_code": "44"
    },
    {
        "name": "기니",
        "dial_code": "224"
    },
    {
        "name": "기니비사우",
        "dial_code": "245"
    },
    {
        "name": "가이아나",
        "dial_code": "595"
    },
    {
        "name": "아이티",
        "dial_code": "509"
    },
    {
        "name": "교황청(바티칸 시국)",
        "dial_code": "379"
    },
    {
        "name": "온두라스",
        "dial_code": "504"
    },
    {
        "name": "Hong Kong",
        "dial_code": "852"
    },
    {
        "name": "Hungary",
        "dial_code": "36"
    },
    {
        "name": "아이슬란드",
        "dial_code": "354"
    },
    {
        "name": "India",
        "dial_code": "91"
    },
    {
        "name": "인도네시아",
        "dial_code": "62"
    },
    {
        "name": "이란, 페르시아만 이슬람 공화국",
        "dial_code": "98"
    },
    {
        "name": "이라크",
        "dial_code": "964"
    },
    {
        "name": "Ireland",
        "dial_code": "353"
    },
    {
        "name": "맨섬",
        "dial_code": "44"
    },
    {
        "name": "이스라엘",
        "dial_code": "972"
    },
    {
        "name": "Italy",
        "dial_code": "39"
    },
    {
        "name": "자메이카",
        "dial_code": "1876"
    },
    {
        "name": "Japan",
        "dial_code": "81"
    },
    {
        "name": "저지",
        "dial_code": "44"
    },
    {
        "name": "Jordan",
        "dial_code": "962"
    },
    {
        "name": "카자흐스탄",
        "dial_code": "77"
    },
    {
        "name": "Kenya",
        "dial_code": "254"
    },
    {
        "name": "키리바시",
        "dial_code": "686"
    },
    {
        "name": "대한민국, 조선민주주의인민공화국",
        "dial_code": "850"
    },
    {
        "name": "쿠웨이트",
        "dial_code": "965"
    },
    {
        "name": "키르기스스탄",
        "dial_code": "996"
    },
    {
        "name": "라오스",
        "dial_code": "856"
    },
    {
        "name": "라트비아",
        "dial_code": "371"
    },
    {
        "name": "레바논",
        "dial_code": "961"
    },
    {
        "name": "레소토",
        "dial_code": "266"
    },
    {
        "name": "라이베리아",
        "dial_code": "231"
    },
    {
        "name": "리비아 아랍 자마히리야",
        "dial_code": "218"
    },
    {
        "name": "리히텐슈타인",
        "dial_code": "423"
    },
    {
        "name": "리투아니아",
        "dial_code": "370"
    },
    {
        "name": "룩셈부르크",
        "dial_code": "352"
    },
    {
        "name": "마카오",
        "dial_code": "853"
    },
    {
        "name": "마케도니아",
        "dial_code": "389"
    },
    {
        "name": "마다가스카르",
        "dial_code": "261"
    },
    {
        "name": "말라위",
        "dial_code": "265"
    },
    {
        "name": "말레이시아",
        "다이얼 코드": "60"
    },
    {
        "name": "몰디브",
        "dial_code": "960"
    },
    {
        "name": "말리",
        "dial_code": "223"
    },
    {
        "name": "몰타",
        "dial_code": "356"
    },
    {
        "name": "마셜 제도",
        "dial_code": "692"
    },
    {
        "name": "마르티니크",
        "dial_code": "596"
    },
    {
        "name": "모리타니아",
        "dial_code": "222"
    },
    {
        "name": "모리셔스",
        "dial_code": "230"
    },
    {
        "name": "마요트",
        "dial_code": "262"
    },
    {
        "name": "Mexico",
        "dial_code": "52"
    },
    {
        "name": "미크로네시아, 미크로네시아 연방",
        "dial_code": "691"
    },
    {
        "name": "몰도바",
        "dial_code": "373"
    },
    {
        "name": "모나코",
        "dial_code": "377"
    },
    {
        "name": "몽골",
        "dial_code": "976"
    },
    {
        "name": "몬테네그로",
        "dial_code": "382"
    },
    {
        "name": "몬세라트",
        "dial_code": "1664"
    },
    {
        "name": "모로코",
        "dial_code": "212"
    },
    {
        "name": "모잠비크",
        "dial_code": "258"
    },
    {
        "name": "미얀마",
        "dial_code": "95"
    },
    {
        "name": "나미비아",
        "dial_code": "264"
    },
    {
        "name": "나우루",
        "dial_code": "674"
    },
    {
        "name": "네팔",
        "dial_code": "977"
    },
    {
        "name": "네덜란드",
        "dial_code": "31"
    },
    {
        "name": "네덜란드 령 앤틸리스",
        "dial_code": "599"
    },
    {
        "name": "뉴칼레도니아",
        "dial_code": "687"
    },
    {
        "name": "뉴질랜드",
        "dial_code": "64"
    },
    {
        "name": "니카라과",
        "dial_code": "505"
    },
    {
        "name": "니제르",
        "dial_code": "227"
    },
    {
        "name": "나이지리아",
        "dial_code": "234"
    },
    {
        "name": "니우에",
        "dial_code": "683"
    },
    {
        "name": "노퍽섬",
        "dial_code": "672"
    },
    {
        "name": "북마리아나 제도",
        "dial_code": "1670"
    },
    {
        "name": "노르웨이",
        "dial_code": "47"
    },
    {
        "name": "Oman",
        "dial_code": "968"
    },
    {
        "name": "파키스탄",
        "dial_code": "92"
    },
    {
        "name": "팔라우",
        "dial_code": "680"
    },
    {
        "name": "팔레스타인 영토, 점령",
        "dial_code": "970"
    },
    {
        "name": "파나마",
        "dial_code": "507"
    },
    {
        "name": "파푸아뉴기니",
        "dial_code": "675"
    },
    {
        "name": "파라과이",
        "dial_code": "595"
    },
    {
        "name": "페루",
        "dial_code": "51"
    },
    {
        "name": "필리핀",
        "dial_code": "63"
    },
    {
        "name": "핏케언",
        "dial_code": "872"
    },
    {
        "name": "폴란드",
        "다이얼 코드": "48"
    },
    {
        "name": "포르투갈",
        "dial_code": "351"
    },
    {
        "name": "푸에르토리코",
        "dial_code": "1939"
    },
    {
        "name": "카타르",
        "dial_code": "974"
    },
    {
        "name": "루마니아",
        "dial_code": "40"
    },
    {
        "name": "러시아",
        "dial_code": "7"
    },
    {
        "name": "르완다",
        "dial_code": "250"
    },
    {
        "name": "재결합",
        "dial_code": "262"
    },
    {
        "name": "생 바르텔레미",
        "dial_code": "590"
    },
    {
        "name": "세인트 헬레나, 어센션, 트리스탄 다 쿠냐",
        "dial_code": "290"
    },
    {
        "name": "세인트키츠네비스",
        "dial_code": "1869"
    },
    {
        "name": "세인트루시아",
        "dial_code": "1758"
    },
    {
        "name": "세인트마틴",
        "dial_code": "590"
    },
    {
        "name": "생 피에르 미켈론",
        "dial_code": "508"
    },
    {
        "name": "세인트빈센트 그레나딘",
        "dial_code": "1784"
    },
    {
        "name": "사모아",
        "dial_code": "685"
    },
    {
        "name": "산마리노",
        "dial_code": "378"
    },
    {
        "name": "상투메프린시페",
        "dial_code": "239"
    },
    {
        "name": "사우디 아라비아",
        "dial_code": "966"
    },
    {
        "name": "세네갈",
        "dial_code": "221"
    },
    {
        "name": "세르비아",
        "dial_code": "381"
    },
    {
        "name": "세이셸",
        "dial_code": "248"
    },
    {
        "name": "시에라리온",
        "dial_code": "232"
    },
    {
        "name": "싱가포르",
        "dial_code": "65"
    },
    {
        "name": "슬로바키아",
        "dial_code": "421"
    },
    {
        "name": "슬로베니아",
        "dial_code": "386"
    },
    {
        "name": "솔로몬 제도",
        "dial_code": "677"
    },
    {
        "name": "소말리아",
        "dial_code": "252"
    },
    {
        "name": "남아프리카공화국",
        "dial_code": "27"
    },
    {
        "name": "남수단",
        "dial_code": "211"
    },
    {
        "name": "사우스 조지아 및 사우스 샌드위치 제도",
        "dial_code": "500"
    },
    {
        "name": "Spain",
        "dial_code": "34"
    },
    {
        "name": "스리랑카",
        "dial_code": "94"
    },
    {
        "name": "수단",
        "dial_code": "249"
    },
    {
        "name": "수리남",
        "dial_code": "597"
    },
    {
        "name": "스발바르와 얀마옌",
        "dial_code": "47"
    },
    {
        "name": "스와질란드",
        "dial_code": "268"
    },
    {
        "name": "Sweden",
        "dial_code": "46"
    },
    {
        "name": "스위스",
        "dial_code": "41"
    },
    {
        "name": "시리아 아랍 공화국",
        "dial_code": "963"
    },
    {
        "name": "Taiwan",
        "dial_code": "886"
    },
    {
        "name": "타지키스탄",
        "dial_code": "992"
    },
    {
        "name": "탄자니아, 탄자니아 연합 공화국",
        "dial_code": "255"
    },
    {
        "name": "태국",
        "dial_code": "66"
    },
    {
        "name": "동티모르",
        "dial_code": "670"
    },
    {
        "name": "Togo",
        "dial_code": "228"
    },
    {
        "name": "토켈라우",
        "dial_code": "690"
    },
    {
        "name": "통가",
        "dial_code": "676"
    },
    {
        "name": "트리니다드토바고",
        "dial_code": "1868"
    },
    {
        "name": "튀니지",
        "dial_code": "216"
    },
    {
        "name": "Turkey",
        "dial_code": "90"
    },
    {
        "name": "투르크메니스탄",
        "dial_code": "993"
    },
    {
        "name": "터크스 케이커스 제도",
        "dial_code": "1649"
    },
    {
        "name": "투발루",
        "dial_code": "688"
    },
    {
        "name": "우간다",
        "dial_code": "256"
    },
    {
        "name": "우크라이나",
        "dial_code": "380"
    },
    {
        "name": "아랍에미리트",
        "dial_code": "971"
    },
    {
        "name": "영국",
        "dial_code": "44"
    },
    {
        "name": "미국",
        "dial_code": "1"
    },
    {
        "name": "우루과이",
        "dial_code": "598"
    },
    {
        "name": "우즈베키스탄",
        "dial_code": "998"
    },
    {
        "name": "바누아투",
        "dial_code": "678"
    },
    {
        "name": "베네수엘라, 베네수엘라 볼리바르 공화국",
        "dial_code": "58"
    },
    {
        "name": "베트남",
        "dial_code": "84"
    },
    {
        "name": "버진아일랜드, 영국령",
        "dial_code": "1284"
    },
    {
        "name": "미국령 버진아일랜드",
        "dial_code": "1340"
    },
    {
        "name": "월리스푸투나",
        "dial_code": "681"
    },
    {
        "name": "예멘",
        "dial_code": "967"
    },
    {
        "name": "잠비아",
        "dial_code": "260"
    },
    {
        "name": "짐바브웨",
        "dial_code": "263"
    }
]
